STARLINK-35252          
1 65850U 25221AD  26080.16038345  .00018835  00000+0  64603-3 0  9998
2 65850  53.1600  35.4834 0001253  86.8289 273.2855 15.30220067 27838
SHIYAN-30 01            
1 65851U 25222A   26080.30120686  .00002496  00000+0  23664-3 0  9994
2 65851  34.9885  68.8918 0005073 334.1600  25.8851 14.93237645 25905
SHIYAN-30 02            
1 65852U 25222B   26080.30045735  .00002461  00000+0  23338-3 0  9996
2 65852  34.9970  68.9886 0004558 345.0071  15.0499 14.93240752 25885
STARLINK-35208          
1 65854U 25223A   26080.14509144  .00023415  00000+0  79986-3 0  9992
2 65854  53.1564 240.6756 0001028  58.1077 302.0024 15.30213601 25968
STARLINK-35200          
1 65855U 25223B   26080.17569128  .00026974  00000+0  91874-3 0  9997
2 65855  53.1618 240.8619 0000419  71.6587 288.4460 15.30228511 25965
STARLINK-35459          
1 65856U 25223C   26079.92921071  .00038383  00000+0  13009-2 0  9998
2 65856  53.1591 242.1702 0000462  55.4818 304.6227 15.30210358 25927
STARLINK-35489          
1 65857U 25223D   26080.13887128  .00020072  00000+0  68760-3 0  9999
2 65857  53.1567 241.3418 0000830  70.5863 289.5227 15.30217338 25952
STARLINK-35199          
1 65858U 25223E   26080.16091804  .00026905  00000+0  91660-3 0  9997
2 65858  53.1596 240.7703 0000602  85.6184 274.4885 15.30222729 25969
STARLINK-35408          
1 65859U 25223F   26079.87656027  .00028884  00000+0  98328-3 0  9994
2 65859  53.1551 242.5521 0000628  65.4431 294.6635 15.30209267 25912
STARLINK-35303          
1 65860U 25223G   26079.46566388  .00043752  00000+0  14778-2 0  9998
2 65860  53.1593 244.2559 0001020  45.9732 314.1353 15.30262805 25859
STARLINK-35258          
1 65861U 25223H   26079.86178585  .00037024  00000+0  12549-2 0  9990
2 65861  53.1592 242.4562 0000859  97.0034 263.1064 15.30227759 25913
STARLINK-35386          
1 65862U 25223J   26080.13676093  .00034161  00000+0  11593-2 0  9997
2 65862  53.1569 241.3291 0000680  42.3031 317.8022 15.30224654 25953
STARLINK-35469          
1 65863U 25223K   26079.93554313  .00034418  00000+0  11684-2 0  9990
2 65863  53.1581 242.2086 0000825  61.0671 299.0412 15.30212829 25921
STARLINK-35471          
1 65864U 25223L   26080.15349715  .00039762  00000+0  13456-2 0  9991
2 65864  53.1595 240.7237 0006467 259.7907 100.2364 15.30229048 25968
STARLINK-35475          
1 65865U 25223M   26080.14298038  .00020155  00000+0  69043-3 0  9992
2 65865  53.1550 240.6570 0000984  82.2098 277.9014 15.30215154 25964
STARLINK-35312          
1 65866U 25223N   26079.73748683  .00014815  00000+0  51118-3 0  9992
2 65866  53.1578 243.1004 0000249 342.0592  18.0400 15.30208235 25892
STARLINK-35456          
1 65867U 25223P   26080.16197368  .00046645  00000+0  15756-2 0  9993
2 65867  53.1591 240.7716 0001025  89.4556 270.6562 15.30231712 25965
STARLINK-35450          
1 65868U 25223Q   26078.75038085  .00017754  00000+0  61007-3 0  9996
2 65868  53.1588 247.6093 0000790  68.1672 291.9412 15.30202653 25745
STARLINK-35441          
1 65869U 25223R   26079.73643491  .00039985  00000+0  13548-2 0  9995
2 65869  53.1586 243.0968 0001070 305.0096  55.0804 15.30203458 25894
STARLINK-35433          
1 65870U 25223S   26079.50460935  .00015204  00000+0  52429-3 0  9992
2 65870  53.1589 243.7832 0001301  87.5852 272.5298 15.30206617 25876
STARLINK-35465          
1 65871U 25223T   26080.17043711  .00014374  00000+0  49672-3 0  9990
2 65871  53.1583 240.8263 0000974  83.8468 276.2643 15.30184665 25967
STARLINK-34108          
1 65872U 25223U   26080.15669680  .00032206  00000+0  10937-2 0  9993
2 65872  53.1579 240.7420 0001256  81.3084 278.8059 15.30233080 25963
STARLINK-35423          
1 65873U 25223V   26080.14614689  .00012824  00000+0  44426-3 0  9997
2 65873  53.1590 240.6761 0001255  91.8086 268.3059 15.30207574 25964
STARLINK-35425          
1 65874U 25223W   26078.81146717  .00018633  00000+0  63925-3 0  9990
2 65874  53.1574 247.2763 0001045  79.1783 280.9335 15.30220526 25758
STARLINK-34688          
1 65875U 25223X   26079.75016963  .00035060  00000+0  11897-2 0  9997
2 65875  53.1572 243.1795 0000891 100.1754 259.9347 15.30216071 25892
STARLINK-34438          
1 65876U 25223Y   26079.73432223  .00025658  00000+0  87527-3 0  9993
2 65876  53.1590 243.0790 0000529  60.4527 299.6527 15.30205483 25897
STARLINK-35462          
1 65877U 25223Z   26080.14827061  .00025597  00000+0  87352-3 0  9997
2 65877  53.1579 240.6866 0003634  80.4058 279.7353 15.30191593 25963
STARLINK-35453          
1 65878U 25223AA  26079.87128219  .00024932  00000+0  85076-3 0  9998
2 65878  53.1569 242.5119 0000656  68.1177 291.9893 15.30212584 25915
STARLINK-35418          
1 65879U 25223AB  26080.14098385  .00025251  00000+0  86126-3 0  9993
2 65879  53.1553 241.3493 0000918  79.2635 280.8469 15.30219136 25954
