OBJECT_NAME,OBJECT_ID,EPOCH,MEAN_MOTION,ECCENTRICITY,INCLINATION,RA_OF_ASC_NODE,ARG_OF_PERICENTER,MEAN_ANOMALY,NORAD_CAT_ID,ELEMENT_SET_NO,REV_AT_EPOCH,BSTAR,MEAN_MOTION_DOT,MEAN_MOTION_DDOT
STARLINK-35252,2025-221AD,2026-03-21T03:50:57.130080,15.30220067,0.00012538,53.16,35.4834,86.8289,273.2855,65850.0,999.0,2783.0,0.00064602545,0.00018835,0.0
SHIYAN-30 01,2025-222A,2026-03-21T07:13:44.272704,14.93237645,0.00050737,34.9885,68.8918,334.16,25.8851,65851.0,999.0,2590.0,0.00023664121,2.496e-05,0.0
SHIYAN-30 02,2025-222B,2026-03-21T07:12:39.515040,14.93240752,0.00045584,34.997,68.9886,345.0071,15.0499,65852.0,999.0,2588.0,0.0002333758,2.461e-05,0.0
STARLINK-35208,2025-223A,2026-03-21T03:28:55.900416,15.30213601,0.00010287,53.1564,240.6756,58.1077,302.0024,65854.0,999.0,2596.0,0.00079985881,0.00023415,0.0
STARLINK-35200,2025-223B,2026-03-21T04:12:59.726592,15.30228511,4.197e-05,53.1618,240.8619,71.6587,288.446,65855.0,999.0,2596.0,0.00091874012,0.00026974,0.0
STARLINK-35459,2025-223C,2026-03-20T22:18:03.805344,15.30210358,4.628e-05,53.1591,242.1702,55.4818,304.6227,65856.0,999.0,2592.0,0.0013009498,0.00038383,0.0
STARLINK-35489,2025-223D,2026-03-21T03:19:58.478592,15.30217338,8.309e-05,53.1567,241.3418,70.5863,289.5227,65857.0,999.0,2595.0,0.00068760213,0.00020072,0.0
STARLINK-35199,2025-223E,2026-03-21T03:51:43.318656,15.30222729,6.026e-05,53.1596,240.7703,85.6184,274.4885,65858.0,999.0,2596.0,0.00091659961,0.00026905,0.0
STARLINK-35408,2025-223F,2026-03-20T21:02:14.807328,15.30209267,6.281e-05,53.1551,242.5521,65.4431,294.6635,65859.0,999.0,2591.0,0.00098327664,0.00028884,0.0
STARLINK-35303,2025-223G,2026-03-20T11:10:33.359232,15.30262805,0.00010205,53.1593,244.2559,45.9732,314.1353,65860.0,999.0,2585.0,0.0014778009,0.00043752,0.0
STARLINK-35258,2025-223H,2026-03-20T20:40:58.297440,15.30227759,8.594e-05,53.1592,242.4562,97.0034,263.1064,65861.0,999.0,2591.0,0.0012548645,0.00037024,0.0
STARLINK-35386,2025-223J,2026-03-21T03:16:56.144352,15.30224654,6.808e-05,53.1569,241.3291,42.3031,317.8022,65862.0,999.0,2595.0,0.001159343,0.00034161,0.0
STARLINK-35469,2025-223K,2026-03-20T22:27:10.926432,15.30212829,8.254e-05,53.1581,242.2086,61.0671,299.0412,65863.0,999.0,2592.0,0.0011683506,0.00034418,0.0
STARLINK-35471,2025-223L,2026-03-21T03:41:02.153760,15.30229048,0.0006467,53.1595,240.7237,259.7907,100.2364,65864.0,999.0,2596.0,0.0013455658,0.00039762,0.0
STARLINK-35475,2025-223M,2026-03-21T03:25:53.504832,15.30215154,9.845e-05,53.155,240.657,82.2098,277.9014,65865.0,999.0,2596.0,0.00069043323,0.00020155,0.0
STARLINK-35312,2025-223N,2026-03-20T17:41:58.862112,15.30208235,2.494e-05,53.1578,243.1004,342.0592,18.04,65866.0,999.0,2589.0,0.00051118317,0.00014815,0.0
STARLINK-35456,2025-223P,2026-03-21T03:53:14.525952,15.30231712,0.00010257,53.1591,240.7716,89.4556,270.6562,65867.0,999.0,2596.0,0.001575621,0.00046645,0.0
STARLINK-35450,2025-223Q,2026-03-19T18:00:32.905440,15.30202653,7.9e-05,53.1588,247.6093,68.1672,291.9412,65868.0,999.0,2574.0,0.00061007132,0.00017754,0.0
STARLINK-35441,2025-223R,2026-03-20T17:40:27.976224,15.30203458,0.00010702,53.1586,243.0968,305.0096,55.0804,65869.0,999.0,2589.0,0.0013547563,0.00039985,0.0
STARLINK-35433,2025-223S,2026-03-20T12:06:38.247840,15.30206617,0.0001301,53.1589,243.7832,87.5852,272.5298,65870.0,999.0,2587.0,0.00052429293,0.00015204,0.0
STARLINK-35465,2025-223T,2026-03-21T04:05:25.766304,15.30184665,9.745e-05,53.1583,240.8263,83.8468,276.2643,65871.0,999.0,2596.0,0.00049671602,0.00014374,0.0
STARLINK-34108,2025-223U,2026-03-21T03:45:38.603520,15.3023308,0.00012563,53.1579,240.742,81.3084,278.8059,65872.0,999.0,2596.0,0.001093662,0.00032206,0.0
STARLINK-35423,2025-223V,2026-03-21T03:30:27.091296,15.30207574,0.00012559,53.159,240.6761,91.8086,268.3059,65873.0,999.0,2596.0,0.00044426146,0.00012824,0.0
STARLINK-35425,2025-223W,2026-03-19T19:28:30.763488,15.30220526,0.00010455,53.1574,247.2763,79.1783,280.9335,65874.0,999.0,2575.0,0.0006392474,0.00018633,0.0
STARLINK-34688,2025-223X,2026-03-20T18:00:14.656032,15.30216071,8.916e-05,53.1572,243.1795,100.1754,259.9347,65875.0,999.0,2589.0,0.0011897055,0.0003506,0.0
STARLINK-34438,2025-223Y,2026-03-20T17:37:25.440672,15.30205483,5.29e-05,53.159,243.079,60.4527,299.6527,65876.0,999.0,2589.0,0.00087527338,0.00025658,0.0
STARLINK-35462,2025-223Z,2026-03-21T03:33:30.580704,15.30191593,0.00036349,53.1579,240.6866,80.4058,279.7353,65877.0,999.0,2596.0,0.00087351774,0.00025597,0.0
STARLINK-35453,2025-223AA,2026-03-20T20:54:38.781216,15.30212584,6.562e-05,53.1569,242.5119,68.1177,291.9893,65878.0,999.0,2591.0,0.00085076151,0.00024932,0.0
STARLINK-35418,2025-223AB,2026-03-21T03:23:01.004640,15.30219136,9.183e-05,53.1553,241.3493,79.2635,280.8469,65879.0,999.0,2595.0,0.00086125974,0.00025251,0.0
